[{"OBJECT_NAME":"QIANFAN-63","OBJECT_ID":"2025-016J","EPOCH":"2026-03-09T22:34:43.982112","MEAN_MOTION":13.50995454,"ECCENTRICITY":0.00183325,"INCLINATION":88.9688,"RA_OF_ASC_NODE":94.0338,"ARG_OF_PERICENTER":96.5976,"MEAN_ANOMALY":263.7263,"EPHEMERIS_TYPE":0,"CLASSIFICATION_TYPE":"U","NORAD_CAT_ID":62793,"ELEMENT_SET_NO":999,"REV_AT_EPOCH":5904,"BSTAR":4.7459013e-5,"MEAN_MOTION_DOT":4.3e-7,"MEAN_MOTION_DDOT":0},{"OBJECT_NAME":"OPS 7034 (TRANSIT 18)","OBJECT_ID":"1968-012A","EPOCH":"2026-03-09T14:52:49.536192","MEAN_MOTION":13.51589294,"ECCENTRICITY":0.0072012,"INCLINATION":90.021,"RA_OF_ASC_NODE":273.8694,"ARG_OF_PERICENTER":279.2027,"MEAN_ANOMALY":141.6054,"EPHEMERIS_TYPE":0,"CLASSIFICATION_TYPE":"U","NORAD_CAT_ID":3133,"ELEMENT_SET_NO":999,"REV_AT_EPOCH":58092,"BSTAR":0.00016651,"MEAN_MOTION_DOT":1.19e-6,"MEAN_MOTION_DDOT":0}]
